{"type":"FeatureCollection","features":[{"type":"Feature","id":"PK-SD","properties":{"name":"Sindh","code":"PK-SD"},"geometry":{"type":"Polygon","coordinates":[[[158.065254,-0.276276],[156.319876,-1.722038],[155.875389,-4.262955],[154.617244,-4.942801],[154.311008,-5.563978],[151.816797,-5.334067],[152.527492,-5.918211],[156.283536,-8.111122],[158.995087,-9.859296],[164.801087,-14.173081],[173.262467,-20.656167],[181.515792,-28.05554],[188.90553,-34.330997],[199.824047,-42.47878],[215.246367,-53.061447],[220.405442,-55.697783],[234.119059,-64.626599],[253.1235,-78.362335],[280.960584,-99.487596],[307.770005,-118.951927],[326.884541,-135.120123],[358.432917,-167.745],[386.496849,-188.777657],[476.916446,-251.113219],[591.428522,-334.868326],[778.12913,-474.813019],[975.734855,-613.647387],[1869.23629,-1248.724561],[1928.850417,-1268.727659],[2121.840761,-1391.707411],[2742.223034,-1807.427492],[3273.054896,-2195.193863],[3505.243767,-2315.898075],[3303.423667,-2153.740781],[3576.314192,-2300.84059],[3908.469181,-2520.052465],[4018.796488,-2546.077262],[3617.221638,-2241.022298],[3124.103696,-1914.299162],[2250.633563,-1364.411539],[2210.665623,-1314.041064],[2299.634225,-1324.329351],[2224.938293,-1248.321595],[2713.733577,-1513.514326],[2796.947041,-1537.576956],[2433.68016,-1282.210751],[2130.572446,-1095.550432],[1609.806647,-797.305688],[1283.625289,-586.417747],[1228.24967,-541.778433],[1070.524631,-453.061367],[1062.652814,-440.074511],[881.993836,-347.368399],[998.252036,-398.036166],[804.996386,-303.648131],[824.968783,-306.911013],[1742.101028,-722.884199],[1339.899005,-503.652453],[1469.970241,-523.73276],[2211.287395,-819.962337],[1853.98032,-660.818758],[1473.943997,-516.299646],[976.295115,-310.082488],[1354.032327,-462.634748],[1544.191999,-531.802184],[1065.256245,-330.920111],[898.780847,-266.777888],[1148.076537,-358.291603],[950.407771,-267.160564],[686.89987,-167.706613],[673.191923,-159.607714],[556.191918,-120.041842],[511.546193,-102.08276],[397.839409,-60.025266],[313.891668,-31.043693],[255.207902,-12.171165],[264.342652,-16.826659],[241.553771,-7.655335],[177.221413,12.655233],[175.832742,11.491355],[169.06497,14.323806],[163.085263,16.16882],[162.184985,17.207667],[151.442416,20.879415],[147.867459,22.399417],[141.23707,25.795203],[139.623332,25.480494],[140.420744,23.206614],[142.507294,21.652892],[140.214906,20.890566],[139.747464,19.394783],[136.7831,18.868852],[136.047093,18.10839],[135.697322,16.047052],[133.646539,14.806709],[131.228789,13.931429],[130.28954,13.71091],[123.683421,12.150974],[122.843516,11.301187],[120.737291,5.268929],[120.933415,3.571446],[121.641917,2.143224],[122.276442,1.396598],[122.825138,0.346364],[123.205631,0.180687],[125.533203,-0.147185],[127.91791,-0.771468],[128.732594,-1.312665],[131.965212,-2.007297],[133.227101,-1.968771],[134.01742,-2.114249],[134.86019,-2.023595],[136.116027,-1.682051],[138.16394,-0.969679],[146.829937,2.455521],[148.94659,3.53999],[150.531114,4.297231],[150.557585,4.192705],[152.590734,5.104822],[153.110843,4.898653],[152.779347,4.253629],[153.021417,2.273701],[154.10741,1.159619],[158.065254,-0.276276]]]}},{"type":"Feature","id":"PK-BA","properties":{"name":"Balochistan","code":"PK-BA"},"geometry":{"type":"Polygon","coordinates":[[[146.829937,2.455521],[138.16394,-0.969679],[136.116027,-1.682051],[134.86019,-2.023595],[134.01742,-2.114249],[133.227101,-1.968771],[131.965212,-2.007297],[128.732594,-1.312665],[127.91791,-0.771468],[125.533203,-0.147185],[123.205631,0.180687],[122.825138,0.346364],[122.276442,1.396598],[121.641917,2.143224],[120.933415,3.571446],[120.737291,5.268929],[122.843516,11.301187],[123.683421,12.150974],[130.28954,13.71091],[131.228789,13.931429],[133.646539,14.806709],[135.697322,16.047052],[136.047093,18.10839],[136.7831,18.868852],[139.747464,19.394783],[140.214906,20.890566],[142.507294,21.652892],[140.420744,23.206614],[139.623332,25.480494],[138.292665,25.804187],[133.59048,25.238976],[132.230541,24.463011],[130.706465,24.457739],[125.212693,25.152321],[125.05549,24.40062],[123.071983,24.087026],[120.874904,24.012263],[118.244922,24.911112],[117.465787,25.62009],[117.088934,27.183647],[118.620837,26.344562],[118.826276,25.581493],[119.840371,25.026908],[122.640527,25.123636],[123.681049,25.363335],[121.022734,25.682667],[119.354382,26.281933],[114.257749,29.062252],[112.197449,30.822485],[108.039586,31.641405],[105.895861,32.637595],[105.238805,33.90873],[103.476926,34.148214],[99.93802,34.924922],[98.664112,35.445251],[98.435757,37.102379],[99.232985,37.321032],[97.532272,37.821739],[97.678559,36.961353],[95.728243,36.689844],[94.650823,37.539192],[93.163144,37.086058],[88.576279,37.050835],[88.258518,35.637049],[87.579437,35.960331],[88.093608,36.958582],[86.046306,37.397862],[83.564,37.038522],[81.240392,37.091796],[79.566946,37.489389],[78.138985,38.822204],[78.526915,40.199151],[76.234022,39.759442],[74.978302,39.909605],[72.607674,39.341414],[69.836711,39.884572],[65.226375,39.022518],[59.96106,38.575782],[60.045828,39.286565],[58.694921,39.232455],[57.260382,39.837321],[57.680718,40.9548],[55.488444,40.461204],[56.753243,39.979439],[55.897325,38.752521],[54.041339,38.350112],[52.298489,38.925301],[52.703882,39.840865],[48.970894,39.15941],[48.046732,39.959544],[45.908913,39.436124],[47.764757,37.505483],[44.736355,36.584529],[45.709022,35.543764],[47.644875,30.968181],[48.300117,30.413211],[48.538694,28.778484],[50.286991,28.088746],[52.071063,23.355733],[52.957026,22.361675],[56.568026,21.740756],[57.132663,20.911972],[58.848537,21.471219],[59.814572,19.229827],[61.901814,18.443774],[64.365993,18.383047],[66.742115,17.561232],[72.38957,18.095073],[72.903723,17.1822],[73.061782,14.921407],[74.271032,14.014551],[73.873094,13.218709],[73.840504,11.453896],[74.32075,10.524203],[75.132109,10.509505],[74.236203,8.91796],[73.06483,8.245362],[69.591156,8.797031],[67.929655,8.559797],[67.403048,6.609833],[68.350301,4.348072],[68.136943,-0.888777],[67.645715,-3.486827],[68.229384,-6.834064],[67.892726,-7.601023],[65.608763,-7.235449],[64.149692,-9.183944],[62.787596,-10.3179],[58.496573,-11.485269],[56.359484,-12.380931],[53.077383,-15.608231],[51.846171,-17.312057],[50.633501,-20.410117],[49.466276,-21.351428],[48.416356,-22.853522],[48.187365,-24.608238],[47.329247,-25.025595],[40.088093,-30.643594],[40.570816,-30.555512],[63.352744,-25.923972],[64.90255,-25.623077],[81.312001,-25.800014],[86.91263,-23.932922],[88.38719,-23.048458],[89.871047,-24.261061],[94.287738,-24.645987],[98.75786,-23.570689],[101.372341,-22.518864],[116.492159,-21.49694],[119.085664,-21.94456],[118.358753,-23.39457],[119.054872,-23.949476],[120.995603,-24.57529],[123.813844,-26.137613],[125.419586,-27.730844],[134.952271,-28.212588],[142.360879,-25.684634],[152.259025,-23.108445],[162.27211,-20.934971],[179.798604,-15.076087],[193.420862,-10.001294],[199.154989,-7.260614],[188.845778,-9.961876],[199.50183,-4.877476],[212.433275,2.174521],[257.935982,22.209524],[300.635396,41.014096],[333.713805,53.808623],[309.758041,41.819186],[312.377775,41.32446],[357.944446,56.786369],[400.754483,77.433692],[538.172409,135.270012],[571.899195,152.43034],[687.850123,203.427949],[1032.951211,351.644433],[967.043467,332.78222],[1040.289499,372.521575],[1065.212591,396.390854],[1185.403222,454.371215],[1148.457102,424.803011],[1381.273661,537.983215],[1375.794209,553.660575],[1036.848742,410.251842],[1059.023351,426.8302],[1323.77592,569.822053],[1763.104452,797.401577],[2777.867845,1316.035619],[3469.11313,1679.15527],[3443.19033,1676.229169],[4337.057785,2212.015925],[6392.22418,3347.666838],[7168.876108,3825.62249],[5720.895909,3049.153801],[5395.884283,2900.095787],[4092.446665,2197.243597],[4817.31711,2621.069191],[1871.395914,992.817816],[1813.941187,974.32148],[1355.214982,722.898403],[1674.702142,910.315184],[1809.195576,1002.872987],[2158.324081,1217.28433],[1810.513689,1022.397846],[1150.249039,629.123215],[975.022446,525.935081],[701.324247,360.089745],[525.652235,246.488803],[501.992868,229.580604],[433.628944,187.932175],[361.153762,140.35837],[299.584032,101.509789],[289.93774,96.401152],[305.563444,108.522918],[267.929067,83.079682],[249.566238,71.162341],[214.767503,47.44753],[196.594381,34.395559],[190.005287,29.141307],[173.401127,18.688616],[174.213251,20.033754],[170.640963,17.961158],[171.838409,19.113813],[165.205409,14.588627],[155.579393,7.828839],[153.67049,6.655666],[150.521824,4.652033],[146.651209,2.457716],[146.829937,2.455521]]]}},{"type":"Feature","id":"PK-JK","properties":{"name":"Azad Jammu & Kashmir","code":"PK-JK"},"geometry":{"type":"Polygon","coordinates":[[[-147404.049827,-127869.649189],[-136813.543777,-121044.169197],[-147556.205425,-131019.343943],[-276056.801569,-244650.342973],[-404085.603758,-361233.143459],[-487254.754945,-439323.302679],[-466746.066003,-426138.574118],[-418202.519313,-385528.673286],[-558679.036008,-515931.823809],[-854192.88705,-786055.121954],[-1119790.058823,-1025233.101255],[-1129948.643899,-1016790.812271],[-802973.582129,-703574.756678],[-539164.698218,-464057.464229],[-514208.731219,-437892.715827],[-706578.174321,-590795.158467],[-758977.382032,-625102.330936],[-855141.887258,-700817.658314],[-1284192.400262,-1049836.193869],[-1656669.538661,-1344242.762582],[-2359511.039421,-1907689.053096],[-4073748.087354,-3264512.903022],[-5603911.307996,-4497267.400256],[-6779501.759476,-5502764.941722],[-16411476.786461,-13358322.494937],[-49842157.141131,-40092136.780465],[-123499179.594143,-99780069.552997],[-109206721.314313,-89008899.028197],[-135349139.852762,-110998832.414411],[-116233067.749083,-96239391.89747],[-229182491.704101,-190373048.091208],[-630757927.13985,-522224978.951522],[-2075626600.50746,-1703664950.1023507],[-3231622309.854302,-2627947811.425408],[-30671954415.520172,-24812546262.630535],[-1172820461839528.2,-948958117479979.5],[373136363719.9785,306433904358.93243],[26110771507.238533,21484475433.056953],[552127053.238755,453209890.077358],[153029287.795448,124674891.210518],[49342269.465278,40286631.75537],[14988288.849942,12444409.295484],[12698939.016895,10671125.967341],[9745571.299478,8225809.352289],[4746930.982494,4026580.927012],[3449430.359022,2926793.108526],[7425416.959634,6089788.684167],[11364117.4603,9241347.15341],[9286805.107105,7500284.103892],[20996366.0982,16604987.753304],[44007644.850587,34822448.159354],[77917949.746423,61306835.93231],[260713286.37718,204836061.438391],[647706349.985323,507107854.528194],[2908242752.3870716,2285690000.776515],[417372547482.1509,327535196583.5085],[130043780152882.83,101572407908211.69],[-970445307633.477,-759370855420.7522],[-8994975145.466154,-7017601012.359173],[-641357818.865122,-501181333.217223],[-132484515.077017,-103035414.295571],[-8361715.084122,-6504399.775575],[-3691795.994866,-2859460.792112],[-1192081.732194,-932871.684034],[-1044227.787831,-828428.813026],[-1203484.364739,-957369.515152],[-703084.268607,-562921.773386],[-470005.925916,-379714.765423],[-404388.2302,-329024.526143],[-386941.63789,-318707.639399],[-303857.179202,-254090.804017],[-182337.762332,-155023.488907],[-160806.13896,-136594.493329],[-135474.488189,-116128.399084],[-135474.488189,-116128.399084],[-135474.488189,-116128.399084],[-136284.597054,-116961.183153],[-147404.049827,-127869.649189]]]}},{"type":"Feature","id":"PK-GB","properties":{"name":"Gilgit-Baltistan","code":"PK-GB"},"geometry":{"type":"Polygon","coordinates":[[[-147404.049827,-127869.649189],[-135474.488189,-116128.399084],[-91322.957811,-77493.563847],[-77523.239699,-65107.541031],[-82833.130487,-69138.468794],[-60075.206935,-50367.490098],[-43634.405365,-37113.91181],[-40845.679657,-35027.052404],[-32327.84041,-27906.866181],[-29667.421135,-25353.515836],[-29119.929271,-24575.598815],[-27108.062431,-22712.44875],[-15716.822397,-13115.168158],[-11831.1951,-10058.460975],[-10384.457112,-8838.413481],[-9564.225078,-7980.874479],[-10142.80707,-8363.187901],[-9160.441254,-7468.986045],[-7656.024792,-6215.846842],[-6159.693028,-5137.151715],[-4914.871278,-4155.539833],[-3803.743404,-3321.58132],[-3557.339947,-3148.828077],[-3705.212563,-3300.665487],[-3101.212362,-2898.523235],[-2796.608495,-2652.332204],[-2835.306168,-2716.482383],[-2326.165112,-2330.576227],[-1939.026414,-1997.809796],[-1912.587943,-2002.911859],[-2016.41261,-2102.608119],[-2042.192105,-2181.080742],[-2275.207653,-2445.046426],[-2466.67121,-2645.82812],[-2412.391236,-2609.348208],[-2624.536768,-2857.007871],[-2310.007154,-2564.265046],[-1953.848404,-2188.420004],[-1812.899245,-2055.481434],[-1993.302261,-2267.003543],[-2203.110593,-2489.750818],[-2329.121391,-2658.116255],[-2131.892807,-2475.616101],[-2188.364768,-2561.322648],[-1998.712045,-2430.668598],[-2042.528263,-2500.360708],[-2212.304164,-2692.280996],[-2016.089102,-2493.992839],[-2000.112515,-2514.316035],[-2164.510926,-2703.948732],[-2224.283926,-2791.36603],[-2714.245713,-3332.296288],[-2513.436422,-3137.335934],[-2551.411013,-3251.170485],[-2820.68204,-3579.934871],[-3126.587859,-3980.978161],[-3441.075039,-4342.737261],[-4187.66827,-5151.705873],[-4485.284482,-5520.722708],[-4260.843304,-5328.694117],[-4450.399552,-5584.545833],[-5181.193426,-6478.923948],[-5956.265087,-7389.240824],[-8081.760892,-9786.974014],[-10869.353517,-12753.284133],[-12604.835417,-14652.367528],[-14250.05228,-16318.974772],[-15923.71755,-17907.95652],[-18392.250616,-20506.651891],[-20125.577559,-22426.23038],[-20719.490638,-23217.275281],[-23356.025552,-26080.252302],[-30284.835708,-33306.102101],[-31940.270065,-35101.812638],[-32758.91758,-36448.036418],[-31898.752487,-35857.392336],[-28046.554943,-32214.833938],[-30599.197585,-35028.863193],[-39713.922661,-44740.214193],[-44240.587759,-50002.389964],[-52943.583548,-59786.24079],[-239245.367058,-260354.8902],[-355797.172967,-382273.907793],[-441637.764531,-468941.555219],[-418580.918069,-440155.832647],[-626914.780592,-652393.755913],[-826240.850059,-850197.116355],[-893569.294183,-911485.698684],[-775713.898234,-788200.584151],[-794705.315309,-802510.573961],[-1035021.747666,-1030417.974834],[-1130374.31365,-1112049.8465],[-1042147.437517,-1018377.335375],[-1324369.318281,-1285661.639777],[-2345941.72525,-2231213.695779],[-2372362.061794,-2226959.890455],[-1699180.98771,-1565672.053428],[-1119790.058823,-1025233.101255],[-854192.88705,-786055.121954],[-558679.036008,-515931.823809],[-418202.519313,-385528.673286],[-466746.066003,-426138.574118],[-487254.754945,-439323.302679],[-404085.603758,-361233.143459],[-276056.801569,-244650.342973],[-147556.205425,-131019.343943],[-136813.543777,-121044.169197],[-147404.049827,-127869.649189]]]}},{"type":"Feature","id":"PK-KP","properties":{"name":"Khyber Pakhtunkhwa","code":"PK-KP"},"geometry":{"type":"Polygon","coordinates":[[[-135474.488189,-116128.399084],[-160806.13896,-136594.493329],[-182337.762332,-155023.488907],[-303857.179202,-254090.804017],[-386941.63789,-318707.639399],[-404388.2302,-329024.526143],[-470005.925916,-379714.765423],[-703084.268607,-562921.773386],[-1203484.364739,-957369.515152],[-1044227.787831,-828428.813026],[-1192081.732194,-932871.684034],[-3691795.994866,-2859460.792112],[-8361715.084122,-6504399.775575],[-132484515.077017,-103035414.295571],[-276339656.839521,-211690720.271894],[-1766049110.497756,-1346243948.3680847],[-10184252643.433748,-7677404849.635155],[-12329381079.724716,-9236458656.806297],[-51247186091.85454,-38046705749.52325],[-1097634770435.1573,-806953573338.7562],[-138909203502.57767,-101318287809.99307],[-8032442263.857805,-5875058637.485416],[-355491449.564025,-257643066.92657],[-2270544686.4500813,-1632165063.122557],[-1433742247.015432,-1022834838.5118712],[-546036188.062868,-391155732.053398],[-362110291.884048,-257290911.176605],[-108850461.917428,-77037820.682794],[-125724137.083582,-88133482.905388],[-288106553.753264,-200210710.59131],[-455011790.048959,-312667716.263503],[-179763902304.5909,-123410377219.18718],[-50171488354.37882,-33922908039.67743],[-1276286492428.601,-857136493653.9089],[1422662773941.9822,951052047013.363],[2396593182.4448934,1599923051.0134766],[212888713.938739,141186354.66181],[85480956.017229,55903942.788472],[17555754.054078,11461017.575819],[10681461.042881,7017390.753102],[2872876.832164,1884025.948588],[4987736.601098,3228223.384855],[8308907.028648,5365201.295784],[12933179.838424,8192060.465579],[8733768.918712,5525564.965817],[2404253.827275,1536815.415964],[1695264.630058,1081043.534455],[1511092.642993,948721.301595],[977532.817419,606497.701349],[332115.736601,205525.512112],[137729.955711,86459.294159],[132348.85794,84128.608271],[90937.551699,58124.796162],[111632.857772,71538.446312],[74223.614242,48004.635851],[50006.084172,32257.572311],[27724.034151,17921.286946],[18659.298676,11960.900192],[15882.322672,10195.198964],[10041.679345,6393.123681],[5734.044352,3631.431803],[3806.850277,2404.053268],[3503.392234,2224.339764],[2892.715625,1833.129712],[2636.668235,1658.037441],[2075.408794,1291.526051],[2129.005189,1312.545642],[1956.186477,1189.953876],[1934.055981,1158.377591],[1676.047993,978.536787],[1485.926844,854.367543],[4661.02678,2648.598417],[5734.055723,3260.049761],[7584.773845,4281.287156],[8048.379451,4513.306852],[12696.385638,7034.486362],[21520.87692,12129.460519],[22477.87305,12785.114866],[38853.723087,22425.515933],[54302.785024,31399.258311],[50994.727582,29896.876153],[61609.033054,36142.486707],[140181.534183,79455.675044],[247447.071613,139807.329522],[556984.287033,317326.147205],[885028.502954,504790.95849],[1147763.915915,657979.926351],[1169201.442422,677925.359783],[2062254.622567,1217342.402731],[4420711.268218,2629170.915107],[5968851.805532,3517435.1187],[6122550.255805,3561507.879234],[8087636.093431,4702433.134857],[9993791.722418,5729210.127454],[25156717.027815,14333498.029244],[41915262.47806,23678593.145489],[177114446.645202,101806641.021531],[304288643.511148,177044467.841707],[3365230087.2234926,1961896960.7839832],[1901904212.3002012,1140894518.0030234],[10597759715.798344,6440331973.830658],[207031073108.70868,126342717799.59119],[-13772130886329.535,-8396728325451.694],[-4358546163098975.5,-2675861609072764],[86749311976.6245,54085357203.14301],[369663920378.817,233449106474.42252],[242780822020.00092,155955554597.58783],[56191152638.86649,36265345533.76258],[5901097022.4944935,3779838367.0764112],[3371690694.222302,2179259447.2152863],[228537025183.68243,150621713074.88443],[4207042986685.9194,2757798627158.1006],[-277891776396.68646,-183444178866.81326],[-75404473605.39864,-49410548341.64756],[-6700371261.1867,-4362331046.87892],[-61984118631.17074,-40221421066.8528],[-11522656071865.115,-7395222098041.357],[-21492246355024.758,-13672531575409.428],[-19569048437.231228,-12422505305.791954],[-2426328206.507947,-1528280953.991606],[-149744774.991881,-93840542.046833],[-22868857.329191,-14350645.147087],[-13808204.176626,-8641423.120941],[-11725906.194759,-7404790.113119],[-5463112.565857,-3495605.272484],[-3413725.832504,-2187454.062591],[-1447272.247457,-946408.023635],[-743570.520976,-484960.214379],[-464543.964017,-305142.315726],[-389554.793739,-258494.140794],[-215375.05529,-144083.36356],[-191398.934107,-126950.066704],[-208784.786045,-137259.314978],[-187298.047867,-122631.976098],[-135578.652536,-88869.352944],[-121187.689032,-78973.688413],[-92481.83915,-60136.37524],[-71646.740701,-47143.869683],[-56094.376196,-37067.714497],[-46038.636986,-30904.453774],[-37154.985556,-25161.615857],[-25443.707131,-17198.784768],[-17854.952911,-12366.382385],[-14530.37606,-10100.521011],[-12421.664335,-8711.962645],[-9502.903115,-6668.492194],[-8296.427107,-5898.362477],[-5036.813984,-3668.47323],[-3923.613614,-2897.361727],[-3543.59987,-2615.273277],[-2844.227795,-2127.604201],[-2454.099691,-1887.770581],[-2195.790386,-1740.421774],[-2187.418907,-1750.291268],[-1937.223629,-1602.206799],[-1911.302278,-1602.438726],[-1790.007224,-1514.317065],[-1527.564686,-1347.073917],[-1832.15893,-1586.287026],[-1841.21791,-1605.822513],[-1580.207442,-1412.623539],[-1604.907949,-1451.185763],[-1403.99029,-1335.726876],[-1394.937798,-1351.382549],[-1267.106404,-1249.533736],[-1251.415326,-1247.872643],[-1328.466749,-1351.903278],[-1256.177982,-1313.66079],[-1297.842963,-1372.106571],[-1414.550319,-1503.431756],[-1412.104458,-1517.306045],[-1506.856326,-1651.658304],[-1713.247353,-1911.334255],[-1812.899245,-2055.481434],[-1953.848404,-2188.420004],[-2310.007154,-2564.265046],[-2624.536768,-2857.007871],[-2412.391236,-2609.348208],[-2466.67121,-2645.82812],[-2275.207653,-2445.046426],[-2042.192105,-2181.080742],[-2016.41261,-2102.608119],[-1912.587943,-2002.911859],[-1939.026414,-1997.809796],[-2326.165112,-2330.576227],[-2835.306168,-2716.482383],[-2796.608495,-2652.332204],[-3101.212362,-2898.523235],[-3705.212563,-3300.665487],[-3557.339947,-3148.828077],[-3803.743404,-3321.58132],[-4914.871278,-4155.539833],[-6159.693028,-5137.151715],[-7656.024792,-6215.846842],[-9160.441254,-7468.986045],[-10142.80707,-8363.187901],[-9564.225078,-7980.874479],[-10384.457112,-8838.413481],[-11831.1951,-10058.460975],[-15716.822397,-13115.168158],[-27108.062431,-22712.44875],[-29119.929271,-24575.598815],[-29667.421135,-25353.515836],[-32327.84041,-27906.866181],[-40845.679657,-35027.052404],[-43634.405365,-37113.91181],[-60075.206935,-50367.490098],[-82833.130487,-69138.468794],[-77523.239699,-65107.541031],[-91322.957811,-77493.563847],[-135474.488189,-116128.399084],[-135474.488189,-116128.399084],[-135474.488189,-116128.399084]]]}},{"type":"Feature","id":"PK-TA","properties":{"name":"Ex-FATA (merged with KP)","code":"PK-TA"},"geometry":{"type":"Polygon","coordinates":[[[975.022446,525.935081],[1150.249039,629.123215],[1810.513689,1022.397846],[2158.324081,1217.28433],[1809.195576,1002.872987],[1674.702142,910.315184],[1355.214982,722.898403],[1813.941187,974.32148],[1871.395914,992.817816],[4817.31711,2621.069191],[4092.446665,2197.243597],[5395.884283,2900.095787],[5720.895909,3049.153801],[7168.876108,3825.62249],[6392.22418,3347.666838],[4337.057785,2212.015925],[3443.19033,1676.229169],[3469.11313,1679.15527],[5867.911849,2841.432769],[10559.389805,5145.557312],[16029.190327,7759.841681],[26270.507591,12815.034404],[32452.170437,16015.109178],[53622.570022,26688.910455],[87309.358901,43004.121592],[150163.293219,74927.19898],[354865.197397,176291.932794],[674793.997327,338467.672312],[781399.778321,399651.555528],[1088338.741672,562945.913358],[957410.571188,502909.391267],[1619127.388557,865097.514113],[2663582.626693,1428021.950007],[2974778.93816,1610964.700858],[12278994.511132,6782445.337565],[28436282.777402,15675985.249186],[237380136.376568,128479194.156936],[21828020664.73767,11826897600.860561],[3.9043995109747155e+19,2.0977683230677344e+19],[-18078112190251.54,-9522878199091.95],[-242854392.362402,-126002759.8118],[-43464811.220598,-22711762.795585],[-37326359.894015,-19801601.970901],[-217041537.821729,-120021920.760016],[-355184447.82656,-201229208.41714],[-218685835.211993,-129122364.626054],[-100893848.41711,-59747291.735267],[-107489720.903647,-64179391.025836],[-49689106.010976,-30062327.393187],[-14261756.538216,-8677401.445926],[-4530542.672977,-2759977.364266],[-2054667.933438,-1257821.689006],[-1547482.985983,-940299.473085],[-854040.2382,-515139.788078],[-562903.100463,-339637.179049],[-506219.914129,-309639.03505],[-266798.39297,-164187.323381],[-193044.363457,-120876.881299],[-112097.544661,-71349.96721],[-92481.83915,-60136.37524],[-121187.689032,-78973.688413],[-135578.652536,-88869.352944],[-187298.047867,-122631.976098],[-208784.786045,-137259.314978],[-191398.934107,-126950.066704],[-215375.05529,-144083.36356],[-389554.793739,-258494.140794],[-464543.964017,-305142.315726],[-743570.520976,-484960.214379],[-1447272.247457,-946408.023635],[-3413725.832504,-2187454.062591],[-5463112.565857,-3495605.272484],[-11725906.194759,-7404790.113119],[-13808204.176626,-8641423.120941],[-22868857.329191,-14350645.147087],[-149744774.991881,-93840542.046833],[-2426328206.507947,-1528280953.991606],[-19569048437.231228,-12422505305.791954],[-21492246355024.758,-13672531575409.428],[-11522656071865.115,-7395222098041.357],[-61984118631.17074,-40221421066.8528],[-6700371261.1867,-4362331046.87892],[-75404473605.39864,-49410548341.64756],[-277891776396.68646,-183444178866.81326],[4207042986685.9194,2757798627158.1006],[228537025183.68243,150621713074.88443],[3371690694.222302,2179259447.2152863],[5901097022.4944935,3779838367.0764112],[56191152638.86649,36265345533.76258],[242780822020.00092,155955554597.58783],[369663920378.817,233449106474.42252],[86749311976.6245,54085357203.14301],[-4358546163098975.5,-2675861609072764],[-13772130886329.535,-8396728325451.694],[207031073108.70868,126342717799.59119],[10597759715.798344,6440331973.830658],[1901904212.3002012,1140894518.0030234],[3365230087.2234926,1961896960.7839832],[304288643.511148,177044467.841707],[177114446.645202,101806641.021531],[41915262.47806,23678593.145489],[25156717.027815,14333498.029244],[9993791.722418,5729210.127454],[8087636.093431,4702433.134857],[6122550.255805,3561507.879234],[5968851.805532,3517435.1187],[4420711.268218,2629170.915107],[2062254.622567,1217342.402731],[1169201.442422,677925.359783],[1147763.915915,657979.926351],[885028.502954,504790.95849],[556984.287033,317326.147205],[247447.071613,139807.329522],[140181.534183,79455.675044],[61609.033054,36142.486707],[50994.727582,29896.876153],[54302.785024,31399.258311],[38853.723087,22425.515933],[22477.87305,12785.114866],[21520.87692,12129.460519],[12696.385638,7034.486362],[8048.379451,4513.306852],[7584.773845,4281.287156],[5734.055723,3260.049761],[4661.02678,2648.598417],[1485.926844,854.367543],[1339.294737,766.252271],[1145.036959,630.273429],[975.022446,525.935081]]]}},{"type":"Feature","id":"PK-IS","properties":{"name":"Islamabad Capital Territory","code":"PK-IS"},"geometry":{"type":"Polygon","coordinates":[[[-12329381079.724716,-9236458656.806297],[-46694229466.02025,-35272918296.941444],[-33826831394371.39,-25806114681838.36],[42247676936.11026,32013190373.5735],[5124353048.645453,3865170207.1631093],[11699033202.321798,8750612556.890528],[60479978112.961044,45273824426.543],[6719073736697.551,4998112804289.736],[66365683644.2645,48712086714.29224],[453432255320.1508,330033851313.7601],[1721136622416874,1251537055704899.8],[-1097634770435.1573,-806953573338.7562],[-51247186091.85454,-38046705749.52325],[-12329381079.724716,-9236458656.806297]]]}},{"type":"Feature","id":"PK-PB","properties":{"name":"Punjab","code":"PK-PB"},"geometry":{"type":"Polygon","coordinates":[[[-1097634770435.1573,-806953573338.7562],[1721136622416874,1251537055704899.8],[453432255320.1508,330033851313.7601],[66365683644.2645,48712086714.29224],[6719073736697.551,4998112804289.736],[60479978112.961044,45273824426.543],[11699033202.321798,8750612556.890528],[5124353048.645453,3865170207.1631093],[42247676936.11026,32013190373.5735],[-33826831394371.39,-25806114681838.36],[-46694229466.02025,-35272918296.941444],[-12329381079.724716,-9236458656.806297],[-10184252643.433748,-7677404849.635155],[-1766049110.497756,-1346243948.3680847],[-276339656.839521,-211690720.271894],[-132484515.077017,-103035414.295571],[-641357818.865122,-501181333.217223],[-8994975145.466154,-7017601012.359173],[-970445307633.477,-759370855420.7522],[130043780152882.83,101572407908211.69],[417372547482.1509,327535196583.5085],[2908242752.3870716,2285690000.776515],[647706349.985323,507107854.528194],[260713286.37718,204836061.438391],[77917949.746423,61306835.93231],[44007644.850587,34822448.159354],[20996366.0982,16604987.753304],[9286805.107105,7500284.103892],[11364117.4603,9241347.15341],[7425416.959634,6089788.684167],[3449430.359022,2926793.108526],[2626164.861541,2234902.571814],[2919243.045987,2501921.258963],[2492115.667666,2157646.657222],[3074159.448955,2678895.465838],[4730456.902375,4135477.382018],[1154455.764778,1016236.276506],[771101.759496,684025.017926],[679923.626457,607559.741252],[774755.461417,698001.307496],[709081.13792,643526.783009],[835834.149354,764562.902295],[688285.220742,640818.661683],[525860.039006,497308.62002],[439497.369702,418134.121759],[280971.371363,268240.950581],[247208.461304,234593.390807],[211621.871659,201159.250709],[203094.955257,190913.716601],[155937.620167,146396.578456],[142112.023462,132161.655776],[107118.349021,99983.520078],[104547.868562,96847.317693],[89449.545351,83026.955188],[70447.498934,65216.546327],[47352.806901,44129.878958],[37996.525684,35984.438321],[25732.387815,24972.922676],[18116.06044,17756.410604],[13622.461258,13541.572004],[12181.96688,12264.461849],[12239.905609,12477.492177],[11272.988873,11475.560462],[8991.60161,9204.0946],[8572.027784,8737.02748],[7429.504406,7593.979588],[7251.734981,7356.467147],[5743.59961,5876.455487],[4404.670765,4530.842834],[3698.845154,3795.795421],[3356.415834,3468.888935],[3155.000078,3249.312235],[2687.647526,2770.91894],[2293.149526,2352.712515],[2102.138135,2198.298011],[1907.801656,2007.997194],[1431.400493,1474.561534],[1253.544665,1256.845553],[1031.851762,1001.515092],[638.493011,576.089757],[456.676162,357.772155],[376.039806,253.242621],[280.786433,128.429931],[257.27838,95.631608],[239.726646,65.164519],[232.388479,51.96109],[219.379824,33.087345],[211.974973,18.784446],[209.183181,5.63292],[196.742551,-1.432324],[187.718917,-1.778376],[182.579923,-3.515962],[176.100453,-6.933647],[173.908297,-7.027773],[170.408144,-5.026522],[168.189188,-1.412316],[167.915328,0.796304],[166.250465,2.466278],[163.966281,3.151566],[161.366568,2.137101],[158.065254,-0.276276],[154.10741,1.159619],[153.021417,2.273701],[152.779347,4.253629],[153.110843,4.898653],[152.590734,5.104822],[150.557585,4.192705],[150.531114,4.297231],[148.94659,3.53999],[146.829937,2.455521],[146.651209,2.457716],[150.521824,4.652033],[153.67049,6.655666],[155.579393,7.828839],[165.205409,14.588627],[171.838409,19.113813],[170.640963,17.961158],[174.213251,20.033754],[173.401127,18.688616],[190.005287,29.141307],[196.594381,34.395559],[214.767503,47.44753],[249.566238,71.162341],[267.929067,83.079682],[305.563444,108.522918],[289.93774,96.401152],[299.584032,101.509789],[361.153762,140.35837],[433.628944,187.932175],[501.992868,229.580604],[525.652235,246.488803],[701.324247,360.089745],[975.022446,525.935081],[1145.036959,630.273429],[1339.294737,766.252271],[1485.926844,854.367543],[1676.047993,978.536787],[1934.055981,1158.377591],[1956.186477,1189.953876],[2129.005189,1312.545642],[2075.408794,1291.526051],[2636.668235,1658.037441],[2892.715625,1833.129712],[3503.392234,2224.339764],[3806.850277,2404.053268],[5734.044352,3631.431803],[10041.679345,6393.123681],[15882.322672,10195.198964],[18659.298676,11960.900192],[27724.034151,17921.286946],[50006.084172,32257.572311],[74223.614242,48004.635851],[111632.857772,71538.446312],[90937.551699,58124.796162],[132348.85794,84128.608271],[137729.955711,86459.294159],[332115.736601,205525.512112],[977532.817419,606497.701349],[1511092.642993,948721.301595],[1695264.630058,1081043.534455],[2404253.827275,1536815.415964],[8733768.918712,5525564.965817],[12933179.838424,8192060.465579],[8308907.028648,5365201.295784],[4987736.601098,3228223.384855],[2872876.832164,1884025.948588],[10681461.042881,7017390.753102],[17555754.054078,11461017.575819],[85480956.017229,55903942.788472],[212888713.938739,141186354.66181],[2396593182.4448934,1599923051.0134766],[1422662773941.9822,951052047013.363],[-1276286492428.601,-857136493653.9089],[-50171488354.37882,-33922908039.67743],[-179763902304.5909,-123410377219.18718],[-455011790.048959,-312667716.263503],[-288106553.753264,-200210710.59131],[-125724137.083582,-88133482.905388],[-108850461.917428,-77037820.682794],[-362110291.884048,-257290911.176605],[-546036188.062868,-391155732.053398],[-1433742247.015432,-1022834838.5118712],[-2270544686.4500813,-1632165063.122557],[-355491449.564025,-257643066.92657],[-8032442263.857805,-5875058637.485416],[-138909203502.57767,-101318287809.99307],[-1097634770435.1573,-806953573338.7562]]]}}]}